*******************************************************************************
Ephemeris / WWW_USER Mon Mar 10 14:39:11 2025 Pasadena, USA      / Horizons    
*******************************************************************************
Target body name: 468861 (2013 LU28)              {source: JPL#36}
Center body name: Earth (399)                     {source: DE441}
Center-site name: Mauna Kea
*******************************************************************************
Start time      : A.D. 2018-Aug-27 04:51:00.0000 UT      
Stop  time      : A.D. 2018-Aug-27 15:56:00.0000 UT      
Step-size       : 1 minutes
*******************************************************************************
Target pole/equ : undefined
Target radii    : undefined                                                    
Center geodetic : 204.5278, 19.8260847, 4.21024   {E-lon(deg),Lat(deg),Alt(km)}
Center cylindric: 204.5278, 6006.35451, 2151.0229 {E-lon(deg),Dxy(km),Dz(km)}
Center pole/equ : ITRF93                          {East-longitude positive}
Center radii    : 6378.137, 6378.137, 6356.752 km {Equator_a, b, pole_c}       
Target primary  : Sun
Vis. interferer : MOON (R_eq= 1737.400) km        {source: DE441}
Rel. light bend : Sun                             {source: DE441}
Rel. lght bnd GM: 1.3271E+11 km^3/s^2                                          
Small-body perts: Yes                             {source: SB441-N16}
Atmos refraction: NO (AIRLESS)
RA format       : HMS
Time format     : CAL 
Calendar mode   : Mixed Julian/Gregorian
RTS-only print  : NO       
EOP file        : eop.250307.p250603                                           
EOP coverage    : DATA-BASED 1962-JAN-20 TO 2025-MAR-07. PREDICTS-> 2025-JUN-02
Units conversion: 1 au= 149597870.700 km, c= 299792.458 km/s, 1 day= 86400.0 s 
Table cut-offs 1: Elevation (-90.0deg=NO ),Airmass (>38.000=NO), Daylight (YES)
Table cut-offs 2: Solar elongation (  0.0,180.0=NO ),Local Hour Angle( 0.0=NO )
Table cut-offs 3: RA/DEC angular rate (     0.0=NO )                           
*******************************************************************************
Initial IAU76/J2000 heliocentric ecliptic osculating elements (au, days, deg.):
  EPOCH=  2459491.5 ! 2021-Oct-04.00 (TDB)         Residual RMS= .14077        
   EC= .9545524767334098   QR= 8.741840911970645   TP= 2460480.7801673855      
   OM= 275.9923561772391   W=  152.9171912923278   IN= 125.3473013584344       
  Equivalent ICRF heliocentric cartesian coordinates (au, au/d):
   X=-6.020062670108302E+00  Y=-1.182282064265113E+00  Z= 8.330249486138040E+00
  VX= 2.086988006100027E-03 VY= 7.079392581348984E-03 VZ=-1.092497303529149E-03
Asteroid physical parameters (km, seconds, rotational period in hours):        
   GM= n.a.                RAD= n.a.               ROTPER= n.a.                
   H= 8.24                 G= .150                 B-V= n.a.                   
                           ALBEDO= n.a.            STYP= n.a.                  
*******************************************************************************
 Date__(UT)__HR:MN     R.A._________(ICRF)_________DEC
******************************************************
$$SOE
 2018-Aug-27 06:54  m  14 58 38.159413 +36 04 41.78132
 2018-Aug-27 06:55  m  14 58 38.160106 +36 04 41.67795
 2018-Aug-27 06:56  m  14 58 38.160800 +36 04 41.57457
 2018-Aug-27 06:57  m  14 58 38.161495 +36 04 41.47120
 2018-Aug-27 06:58  m  14 58 38.162190 +36 04 41.36782
 2018-Aug-27 06:59  m  14 58 38.162887 +36 04 41.26443
 2018-Aug-27 07:00  m  14 58 38.163584 +36 04 41.16105
 2018-Aug-27 07:01  m  14 58 38.164282 +36 04 41.05766
 2018-Aug-27 07:02  m  14 58 38.164982 +36 04 40.95426
 2018-Aug-27 07:03  m  14 58 38.165682 +36 04 40.85087
 2018-Aug-27 07:04  m  14 58 38.166383 +36 04 40.74747
 2018-Aug-27 07:05  m  14 58 38.167085 +36 04 40.64407
 2018-Aug-27 07:06  m  14 58 38.167788 +36 04 40.54066
 2018-Aug-27 07:07  m  14 58 38.168492 +36 04 40.43725
 2018-Aug-27 07:08  m  14 58 38.169196 +36 04 40.33384
 2018-Aug-27 07:09  m  14 58 38.169902 +36 04 40.23043
 2018-Aug-27 07:10  m  14 58 38.170609 +36 04 40.12702
 2018-Aug-27 07:11  m  14 58 38.171316 +36 04 40.02360
 2018-Aug-27 07:12  m  14 58 38.172025 +36 04 39.92018
 2018-Aug-27 07:13  m  14 58 38.172734 +36 04 39.81675
 2018-Aug-27 07:14  m  14 58 38.173445 +36 04 39.71332
 2018-Aug-27 07:15  m  14 58 38.174156 +36 04 39.60990
 2018-Aug-27 07:16  m  14 58 38.174868 +36 04 39.50646
 2018-Aug-27 07:17  m  14 58 38.175581 +36 04 39.40303
 2018-Aug-27 07:18  m  14 58 38.176296 +36 04 39.29959
 2018-Aug-27 07:19  m  14 58 38.177011 +36 04 39.19615
 2018-Aug-27 07:20  m  14 58 38.177727 +36 04 39.09271
 2018-Aug-27 07:21  m  14 58 38.178444 +36 04 38.98927
 2018-Aug-27 07:22  m  14 58 38.179162 +36 04 38.88582
 2018-Aug-27 07:23  m  14 58 38.179881 +36 04 38.78237
 2018-Aug-27 07:24  m  14 58 38.180601 +36 04 38.67892
 2018-Aug-27 07:25  m  14 58 38.181321 +36 04 38.57546
 2018-Aug-27 07:26  m  14 58 38.182043 +36 04 38.47201
 2018-Aug-27 07:27  m  14 58 38.182766 +36 04 38.36855
 2018-Aug-27 07:28  m  14 58 38.183490 +36 04 38.26509
 2018-Aug-27 07:29  m  14 58 38.184214 +36 04 38.16162
 2018-Aug-27 07:30  m  14 58 38.184940 +36 04 38.05816
 2018-Aug-27 07:31  m  14 58 38.185667 +36 04 37.95469
 2018-Aug-27 07:32  m  14 58 38.186394 +36 04 37.85122
 2018-Aug-27 07:33  m  14 58 38.187123 +36 04 37.74774
 2018-Aug-27 07:34  m  14 58 38.187853 +36 04 37.64427
 2018-Aug-27 07:35  m  14 58 38.188583 +36 04 37.54079
 2018-Aug-27 07:36  m  14 58 38.189315 +36 04 37.43731
 2018-Aug-27 07:37  m  14 58 38.190047 +36 04 37.33383
 2018-Aug-27 07:38  m  14 58 38.190780 +36 04 37.23035
 2018-Aug-27 07:39  m  14 58 38.191515 +36 04 37.12686
 2018-Aug-27 07:40  m  14 58 38.192250 +36 04 37.02338
 2018-Aug-27 07:41  m  14 58 38.192987 +36 04 36.91989
 2018-Aug-27 07:42  m  14 58 38.193724 +36 04 36.81640
 2018-Aug-27 07:43  m  14 58 38.194462 +36 04 36.71290
 2018-Aug-27 07:44  m  14 58 38.195202 +36 04 36.60941
 2018-Aug-27 07:45  m  14 58 38.195942 +36 04 36.50591
 2018-Aug-27 07:46  m  14 58 38.196684 +36 04 36.40241
 2018-Aug-27 07:47  m  14 58 38.197426 +36 04 36.29891
 2018-Aug-27 07:48  m  14 58 38.198169 +36 04 36.19541
 2018-Aug-27 07:49  m  14 58 38.198913 +36 04 36.09191
 2018-Aug-27 07:50  m  14 58 38.199659 +36 04 35.98840
 2018-Aug-27 07:51  m  14 58 38.200405 +36 04 35.88489
 2018-Aug-27 07:52  m  14 58 38.201152 +36 04 35.78138
 2018-Aug-27 07:53  m  14 58 38.201901 +36 04 35.67787
 2018-Aug-27 07:54  m  14 58 38.202650 +36 04 35.57436
 2018-Aug-27 07:55  m  14 58 38.203400 +36 04 35.47084
 2018-Aug-27 07:56  m  14 58 38.204151 +36 04 35.36733
 2018-Aug-27 07:57  m  14 58 38.204904 +36 04 35.26381
 2018-Aug-27 07:58  m  14 58 38.205657 +36 04 35.16029
 2018-Aug-27 07:59  m  14 58 38.206411 +36 04 35.05677
 2018-Aug-27 08:00  m  14 58 38.207167 +36 04 34.95325
 2018-Aug-27 08:01  m  14 58 38.207923 +36 04 34.84973
 2018-Aug-27 08:02  m  14 58 38.208680 +36 04 34.74620
 2018-Aug-27 08:03  m  14 58 38.209439 +36 04 34.64268
 2018-Aug-27 08:04  m  14 58 38.210198 +36 04 34.53915
 2018-Aug-27 08:05  m  14 58 38.210958 +36 04 34.43562
 2018-Aug-27 08:06  m  14 58 38.211719 +36 04 34.33209
 2018-Aug-27 08:07  m  14 58 38.212482 +36 04 34.22856
 2018-Aug-27 08:08  m  14 58 38.213245 +36 04 34.12502
 2018-Aug-27 08:09  m  14 58 38.214010 +36 04 34.02149
 2018-Aug-27 08:10  m  14 58 38.214775 +36 04 33.91795
 2018-Aug-27 08:11  m  14 58 38.215541 +36 04 33.81442
 2018-Aug-27 08:12  m  14 58 38.216309 +36 04 33.71088
 2018-Aug-27 08:13  m  14 58 38.217077 +36 04 33.60734
 2018-Aug-27 08:14  m  14 58 38.217847 +36 04 33.50380
 2018-Aug-27 08:15  m  14 58 38.218617 +36 04 33.40026
 2018-Aug-27 08:16  m  14 58 38.219389 +36 04 33.29672
 2018-Aug-27 08:17  m  14 58 38.220161 +36 04 33.19318
 2018-Aug-27 08:18  m  14 58 38.220935 +36 04 33.08963
 2018-Aug-27 08:19  m  14 58 38.221709 +36 04 32.98609
 2018-Aug-27 08:20  m  14 58 38.222485 +36 04 32.88254
 2018-Aug-27 08:21  m  14 58 38.223261 +36 04 32.77899
 2018-Aug-27 08:22  m  14 58 38.224039 +36 04 32.67545
 2018-Aug-27 08:23  m  14 58 38.224818 +36 04 32.57190
 2018-Aug-27 08:24  m  14 58 38.225597 +36 04 32.46835
 2018-Aug-27 08:25  m  14 58 38.226378 +36 04 32.36480
 2018-Aug-27 08:26  m  14 58 38.227160 +36 04 32.26125
 2018-Aug-27 08:27  m  14 58 38.227942 +36 04 32.15769
 2018-Aug-27 08:28  m  14 58 38.228726 +36 04 32.05414
 2018-Aug-27 08:29  m  14 58 38.229511 +36 04 31.95059
 2018-Aug-27 08:30  m  14 58 38.230297 +36 04 31.84704
 2018-Aug-27 08:31  m  14 58 38.231084 +36 04 31.74348
 2018-Aug-27 08:32  m  14 58 38.231872 +36 04 31.63993
 2018-Aug-27 08:33  m  14 58 38.232660 +36 04 31.53637
 2018-Aug-27 08:34  m  14 58 38.233450 +36 04 31.43281
 2018-Aug-27 08:35  m  14 58 38.234241 +36 04 31.32926
 2018-Aug-27 08:36  m  14 58 38.235033 +36 04 31.22570
 2018-Aug-27 08:37  m  14 58 38.235826 +36 04 31.12214
 2018-Aug-27 08:38  m  14 58 38.236620 +36 04 31.01858
 2018-Aug-27 08:39  m  14 58 38.237415 +36 04 30.91502
 2018-Aug-27 08:40  m  14 58 38.238212 +36 04 30.81147
 2018-Aug-27 08:41  m  14 58 38.239009 +36 04 30.70791
 2018-Aug-27 08:42  m  14 58 38.239807 +36 04 30.60435
 2018-Aug-27 08:43  m  14 58 38.240606 +36 04 30.50079
 2018-Aug-27 08:44  m  14 58 38.241406 +36 04 30.39723
 2018-Aug-27 08:45  m  14 58 38.242208 +36 04 30.29366
 2018-Aug-27 08:46  m  14 58 38.243010 +36 04 30.19010
 2018-Aug-27 08:47  m  14 58 38.243813 +36 04 30.08654
 2018-Aug-27 08:48  m  14 58 38.244618 +36 04 29.98298
 2018-Aug-27 08:49  m  14 58 38.245423 +36 04 29.87942
 2018-Aug-27 08:50  m  14 58 38.246229 +36 04 29.77586
 2018-Aug-27 08:51  m  14 58 38.247037 +36 04 29.67230
 2018-Aug-27 08:52  m  14 58 38.247845 +36 04 29.56874
 2018-Aug-27 08:53  m  14 58 38.248655 +36 04 29.46517
 2018-Aug-27 08:54  m  14 58 38.249466 +36 04 29.36161
 2018-Aug-27 08:55  m  14 58 38.250277 +36 04 29.25805
 2018-Aug-27 08:56  m  14 58 38.251090 +36 04 29.15449
